{"type":"Topology","objects":{"vic_suburb":{"type":"GeometryCollection","geometries":[
{"type":"Polygon","properties":{"vic_loca_2":"MELBOURNE"},"arcs":[[0]]},
{"type":"Polygon","properties":{"vic_loca_2":"DOCKLANDS"},"arcs":[[1]]},
{"type":"Polygon","properties":{"vic_loca_2":"EAST MELBOURNE"},"arcs":[[2]]},
{"type":"Polygon","properties":{"vic_loca_2":"RICHMOND"},"arcs":[[3]]},
{"type":"Polygon","properties":{"vic_loca_2":"SOUTH YARRA"},"arcs":[[4]]},
{"type":"Polygon","properties":{"vic_loca_2":"SOUTHBANK"},"arcs":[[5]]},
{"type":"Polygon","properties":{"vic_loca_2":"NORTH MELBOURNE"},"arcs":[[6]]},
{"type":"Polygon","properties":{"vic_loca_2":"WEST MELBOURNE"},"arcs":[[7]]},
{"type":"Polygon","properties":{"vic_loca_2":"CARLTON"},"arcs":[[8]]},
{"type":"Polygon","properties":{"vic_loca_2":"FITZROY"},"arcs":[[9]]},
{"type":"Polygon","properties":{"vic_loca_2":"COLLINGWOOD"},"arcs":[[10]]},
{"type":"Polygon","properties":{"vic_loca_2":"ABBOTSFORD"},"arcs":[[11]]},
{"type":"Polygon","properties":{"vic_loca_2":"CREMORNE"},"arcs":[[12]]},
{"type":"Polygon","properties":{"vic_loca_2":"PRAHRAN"},"arcs":[[13]]},
{"type":"Polygon","properties":{"vic_loca_2":"KENSINGTON"},"arcs":[[14]]},
{"type":"Polygon","properties":{"vic_loca_2":"FLEMINGTON"},"arcs":[[15]]},
{"type":"Polygon","properties":{"vic_loca_2":"PORT MELBOURNE"},"arcs":[[16]]},
{"type":"Polygon","properties":{"vic_loca_2":"ALBERT PARK"},"arcs":[[17]]}
]}},"arcs":[
[[144.945,-37.823],[144.975,-37.823],[144.975,-37.807],[144.945,-37.807],[144.945,-37.823]],
[[144.930,-37.823],[144.952,-37.823],[144.952,-37.808],[144.930,-37.808],[144.930,-37.823]],
[[144.975,-37.823],[144.998,-37.823],[144.998,-37.808],[144.975,-37.808],[144.975,-37.823]],
[[144.998,-37.838],[145.020,-37.838],[145.020,-37.820],[144.998,-37.820],[144.998,-37.838]],
[[144.990,-37.852],[145.015,-37.852],[145.015,-37.838],[144.990,-37.838],[144.990,-37.852]],
[[144.952,-37.838],[144.975,-37.838],[144.975,-37.823],[144.952,-37.823],[144.952,-37.838]],
[[144.928,-37.808],[144.952,-37.808],[144.952,-37.793],[144.928,-37.793],[144.928,-37.808]],
[[144.928,-37.823],[144.945,-37.823],[144.945,-37.808],[144.928,-37.808],[144.928,-37.823]],
[[144.960,-37.808],[144.975,-37.808],[144.975,-37.793],[144.960,-37.793],[144.960,-37.808]],
[[144.975,-37.808],[144.998,-37.808],[144.998,-37.793],[144.975,-37.793],[144.975,-37.808]],
[[144.998,-37.820],[145.015,-37.820],[145.015,-37.808],[144.998,-37.808],[144.998,-37.820]],
[[145.000,-37.820],[145.022,-37.820],[145.022,-37.808],[145.000,-37.808],[145.000,-37.820]],
[[144.998,-37.838],[145.010,-37.838],[145.010,-37.826],[144.998,-37.826],[144.998,-37.838]],
[[144.985,-37.852],[145.005,-37.852],[145.005,-37.838],[144.985,-37.838],[144.985,-37.852]],
[[144.910,-37.808],[144.928,-37.808],[144.928,-37.793],[144.910,-37.793],[144.910,-37.808]],
[[144.910,-37.823],[144.928,-37.823],[144.928,-37.808],[144.910,-37.808],[144.910,-37.823]],
[[144.910,-37.838],[144.940,-37.838],[144.940,-37.823],[144.910,-37.823],[144.910,-37.838]],
[[144.940,-37.852],[144.975,-37.852],[144.975,-37.838],[144.940,-37.838],[144.940,-37.852]]
],"bbox":[144.910,-37.852,145.022,-37.793]}
